STARLINK-35664          
1 66223U 25244T   25322.16670139  .00095434  00000+0  17068-2 0  9991
2 66223  53.1607  31.9397 0001355  51.6434 114.3319 15.49246048  4371
STARLINK-35733          
1 66224U 25244U   25322.16670139 -.00019314  00000+0 -33994-3 0  9994
2 66224  53.1608  31.9274 0001388  76.8329  94.8628 15.49317185  4269
STARLINK-35734          
1 66225U 25244V   25322.16670139 -.00023831  00000+0 -42155-3 0  9993
2 66225  53.1607  31.9306 0001100  70.2214  99.5549 15.49319862  4266
STARLINK-34466          
1 66226U 25244W   25322.16670139 -.00022069  00000+0 -38975-3 0  9991
2 66226  53.1608  31.9224 0000994  70.1476 103.4649 15.49317630  4588
STARLINK-34882          
1 66227U 25244X   25322.16670139 -.00029873  00000+0 -53088-3 0  9994
2 66227  53.1608  31.9177 0001153  68.5163 107.0132 15.49321003  4584
STARLINK-35731          
1 66228U 25244Y   25322.16670139 -.00028008  00000+0 -49712-3 0  9993
2 66228  53.1608  31.9140 0001127  65.6084 111.8376 15.49320716  4264
STARLINK-35758          
1 66229U 25244Z   25322.16670139 -.00025305  00000+0 -44822-3 0  9998
2 66229  53.1608  31.9105 0001150  68.2276 111.1353 15.49319478  4265
STARLINK-35736          
1 66230U 25244AA  25322.16670139 -.00022508  00000+0 -39767-3 0  9994
2 66230  53.1608  31.9063 0000978  70.8612 110.4182 15.49318447  4267
STARLINK-35735          
1 66231U 25244AB  25322.16670139 -.00019488  00000+0 -34313-3 0  9990
2 66231  53.1608  31.9026 0001070  71.2997 111.8993 15.49314913  4261
STARLINK-35753          
1 66232U 25244AC  25322.16670139 -.00016470  00000+0 -28863-3 0  9992
2 66232  53.1608  31.8993 0001338  81.7774 103.3378 15.49314981  4268
STARLINK-35626          
1 66233U 25244AD  25322.16670139 -.00070756  00000+0 -12735-2 0  9990
2 66233  53.1609  31.8950 0001478  76.3148 110.6829 15.49356743  4425
STARLINK-35537          
1 66234U 25245A   25322.16670139 -.01972175  00000+0 -26081-1 0  9997
2 66234  53.1602  85.8908 0000881  79.3599 359.2373 15.61116762  4155
