CCSDS_OMM_VERS = 2.0
CREATION_DATE  = 
ORIGINATOR     = 

OBJECT_NAME    = STARLINK-35664
OBJECT_ID      = 2025-244T
CENTER_NAME    = EARTH
REF_FRAME      = TEME
TIME_SYSTEM    = UTC
MEAN_ELEMENT_THEORY = SGP/SGP4

EPOCH          = 2025-11-18T04:00:03.000096
MEAN_MOTION    = 15.49246048
ECCENTRICITY   = .0001355
INCLINATION    = 53.1607
RA_OF_ASC_NODE = 31.9397
ARG_OF_PERICENTER = 51.6434
MEAN_ANOMALY   = 114.3319

EPHEMERIS_TYPE = 0
CLASSIFICATION_TYPE = U
NORAD_CAT_ID   = 66223
ELEMENT_SET_NO = 999
REV_AT_EPOCH   = 437
BSTAR          = .17068E-2
MEAN_MOTION_DOT = .95434E-3
MEAN_MOTION_DDOT = 0

CCSDS_OMM_VERS = 2.0
CREATION_DATE  = 
ORIGINATOR     = 

OBJECT_NAME    = STARLINK-35733
OBJECT_ID      = 2025-244U
CENTER_NAME    = EARTH
REF_FRAME      = TEME
TIME_SYSTEM    = UTC
MEAN_ELEMENT_THEORY = SGP/SGP4

EPOCH          = 2025-11-18T04:00:03.000096
MEAN_MOTION    = 15.49317185
ECCENTRICITY   = .0001388
INCLINATION    = 53.1608
RA_OF_ASC_NODE = 31.9274
ARG_OF_PERICENTER = 76.8329
MEAN_ANOMALY   = 94.8628

EPHEMERIS_TYPE = 0
CLASSIFICATION_TYPE = U
NORAD_CAT_ID   = 66224
ELEMENT_SET_NO = 999
REV_AT_EPOCH   = 426
BSTAR          = -.33994E-3
MEAN_MOTION_DOT = -.19314E-3
MEAN_MOTION_DDOT = 0

CCSDS_OMM_VERS = 2.0
CREATION_DATE  = 
ORIGINATOR     = 

OBJECT_NAME    = STARLINK-35734
OBJECT_ID      = 2025-244V
CENTER_NAME    = EARTH
REF_FRAME      = TEME
TIME_SYSTEM    = UTC
MEAN_ELEMENT_THEORY = SGP/SGP4

EPOCH          = 2025-11-18T04:00:03.000096
MEAN_MOTION    = 15.49319862
ECCENTRICITY   = .00011
INCLINATION    = 53.1607
RA_OF_ASC_NODE = 31.9306
ARG_OF_PERICENTER = 70.2214
MEAN_ANOMALY   = 99.5549

EPHEMERIS_TYPE = 0
CLASSIFICATION_TYPE = U
NORAD_CAT_ID   = 66225
ELEMENT_SET_NO = 999
REV_AT_EPOCH   = 426
BSTAR          = -.42155E-3
MEAN_MOTION_DOT = -.23831E-3
MEAN_MOTION_DDOT = 0

CCSDS_OMM_VERS = 2.0
CREATION_DATE  = 
ORIGINATOR     = 

OBJECT_NAME    = STARLINK-34466
OBJECT_ID      = 2025-244W
CENTER_NAME    = EARTH
REF_FRAME      = TEME
TIME_SYSTEM    = UTC
MEAN_ELEMENT_THEORY = SGP/SGP4

EPOCH          = 2025-11-18T04:00:03.000096
MEAN_MOTION    = 15.49317630
ECCENTRICITY   = .0000994
INCLINATION    = 53.1608
RA_OF_ASC_NODE = 31.9224
ARG_OF_PERICENTER = 70.1476
MEAN_ANOMALY   = 103.4649

EPHEMERIS_TYPE = 0
CLASSIFICATION_TYPE = U
NORAD_CAT_ID   = 66226
ELEMENT_SET_NO = 999
REV_AT_EPOCH   = 458
BSTAR          = -.38975E-3
MEAN_MOTION_DOT = -.22069E-3
MEAN_MOTION_DDOT = 0

CCSDS_OMM_VERS = 2.0
CREATION_DATE  = 
ORIGINATOR     = 

OBJECT_NAME    = STARLINK-34882
OBJECT_ID      = 2025-244X
CENTER_NAME    = EARTH
REF_FRAME      = TEME
TIME_SYSTEM    = UTC
MEAN_ELEMENT_THEORY = SGP/SGP4

EPOCH          = 2025-11-18T04:00:03.000096
MEAN_MOTION    = 15.49321003
ECCENTRICITY   = .0001153
INCLINATION    = 53.1608
RA_OF_ASC_NODE = 31.9177
ARG_OF_PERICENTER = 68.5163
MEAN_ANOMALY   = 107.0132

EPHEMERIS_TYPE = 0
CLASSIFICATION_TYPE = U
NORAD_CAT_ID   = 66227
ELEMENT_SET_NO = 999
REV_AT_EPOCH   = 458
BSTAR          = -.53088E-3
MEAN_MOTION_DOT = -.29873E-3
MEAN_MOTION_DDOT = 0

CCSDS_OMM_VERS = 2.0
CREATION_DATE  = 
ORIGINATOR     = 

OBJECT_NAME    = STARLINK-35731
OBJECT_ID      = 2025-244Y
CENTER_NAME    = EARTH
REF_FRAME      = TEME
TIME_SYSTEM    = UTC
MEAN_ELEMENT_THEORY = SGP/SGP4

EPOCH          = 2025-11-18T04:00:03.000096
MEAN_MOTION    = 15.49320716
ECCENTRICITY   = .0001127
INCLINATION    = 53.1608
RA_OF_ASC_NODE = 31.9140
ARG_OF_PERICENTER = 65.6084
MEAN_ANOMALY   = 111.8376

EPHEMERIS_TYPE = 0
CLASSIFICATION_TYPE = U
NORAD_CAT_ID   = 66228
ELEMENT_SET_NO = 999
REV_AT_EPOCH   = 426
BSTAR          = -.49712E-3
MEAN_MOTION_DOT = -.28008E-3
MEAN_MOTION_DDOT = 0

CCSDS_OMM_VERS = 2.0
CREATION_DATE  = 
ORIGINATOR     = 

OBJECT_NAME    = STARLINK-35758
OBJECT_ID      = 2025-244Z
CENTER_NAME    = EARTH
REF_FRAME      = TEME
TIME_SYSTEM    = UTC
MEAN_ELEMENT_THEORY = SGP/SGP4

EPOCH          = 2025-11-18T04:00:03.000096
MEAN_MOTION    = 15.49319478
ECCENTRICITY   = .000115
INCLINATION    = 53.1608
RA_OF_ASC_NODE = 31.9105
ARG_OF_PERICENTER = 68.2276
MEAN_ANOMALY   = 111.1353

EPHEMERIS_TYPE = 0
CLASSIFICATION_TYPE = U
NORAD_CAT_ID   = 66229
ELEMENT_SET_NO = 999
REV_AT_EPOCH   = 426
BSTAR          = -.44822E-3
MEAN_MOTION_DOT = -.25305E-3
MEAN_MOTION_DDOT = 0

CCSDS_OMM_VERS = 2.0
CREATION_DATE  = 
ORIGINATOR     = 

OBJECT_NAME    = STARLINK-35736
OBJECT_ID      = 2025-244AA
CENTER_NAME    = EARTH
REF_FRAME      = TEME
TIME_SYSTEM    = UTC
MEAN_ELEMENT_THEORY = SGP/SGP4

EPOCH          = 2025-11-18T04:00:03.000096
MEAN_MOTION    = 15.49318447
ECCENTRICITY   = .0000978
INCLINATION    = 53.1608
RA_OF_ASC_NODE = 31.9063
ARG_OF_PERICENTER = 70.8612
MEAN_ANOMALY   = 110.4182

EPHEMERIS_TYPE = 0
CLASSIFICATION_TYPE = U
NORAD_CAT_ID   = 66230
ELEMENT_SET_NO = 999
REV_AT_EPOCH   = 426
BSTAR          = -.39767E-3
MEAN_MOTION_DOT = -.22508E-3
MEAN_MOTION_DDOT = 0

CCSDS_OMM_VERS = 2.0
CREATION_DATE  = 
ORIGINATOR     = 

OBJECT_NAME    = STARLINK-35735
OBJECT_ID      = 2025-244AB
CENTER_NAME    = EARTH
REF_FRAME      = TEME
TIME_SYSTEM    = UTC
MEAN_ELEMENT_THEORY = SGP/SGP4

EPOCH          = 2025-11-18T04:00:03.000096
MEAN_MOTION    = 15.49314913
ECCENTRICITY   = .000107
INCLINATION    = 53.1608
RA_OF_ASC_NODE = 31.9026
ARG_OF_PERICENTER = 71.2997
MEAN_ANOMALY   = 111.8993

EPHEMERIS_TYPE = 0
CLASSIFICATION_TYPE = U
NORAD_CAT_ID   = 66231
ELEMENT_SET_NO = 999
REV_AT_EPOCH   = 426
BSTAR          = -.34313E-3
MEAN_MOTION_DOT = -.19488E-3
MEAN_MOTION_DDOT = 0

CCSDS_OMM_VERS = 2.0
CREATION_DATE  = 
ORIGINATOR     = 

OBJECT_NAME    = STARLINK-35753
OBJECT_ID      = 2025-244AC
CENTER_NAME    = EARTH
REF_FRAME      = TEME
TIME_SYSTEM    = UTC
MEAN_ELEMENT_THEORY = SGP/SGP4

EPOCH          = 2025-11-18T04:00:03.000096
MEAN_MOTION    = 15.49314981
ECCENTRICITY   = .0001338
INCLINATION    = 53.1608
RA_OF_ASC_NODE = 31.8993
ARG_OF_PERICENTER = 81.7774
MEAN_ANOMALY   = 103.3378

EPHEMERIS_TYPE = 0
CLASSIFICATION_TYPE = U
NORAD_CAT_ID   = 66232
ELEMENT_SET_NO = 999
REV_AT_EPOCH   = 426
BSTAR          = -.28863E-3
MEAN_MOTION_DOT = -.1647E-3
MEAN_MOTION_DDOT = 0

CCSDS_OMM_VERS = 2.0
CREATION_DATE  = 
ORIGINATOR     = 

OBJECT_NAME    = STARLINK-35626
OBJECT_ID      = 2025-244AD
CENTER_NAME    = EARTH
REF_FRAME      = TEME
TIME_SYSTEM    = UTC
MEAN_ELEMENT_THEORY = SGP/SGP4

EPOCH          = 2025-11-18T04:00:03.000096
MEAN_MOTION    = 15.49356743
ECCENTRICITY   = .0001478
INCLINATION    = 53.1609
RA_OF_ASC_NODE = 31.8950
ARG_OF_PERICENTER = 76.3148
MEAN_ANOMALY   = 110.6829

EPHEMERIS_TYPE = 0
CLASSIFICATION_TYPE = U
NORAD_CAT_ID   = 66233
ELEMENT_SET_NO = 999
REV_AT_EPOCH   = 442
BSTAR          = -.12735E-2
MEAN_MOTION_DOT = -.70756E-3
MEAN_MOTION_DDOT = 0

CCSDS_OMM_VERS = 2.0
CREATION_DATE  = 
ORIGINATOR     = 

OBJECT_NAME    = STARLINK-35537
OBJECT_ID      = 2025-245A
CENTER_NAME    = EARTH
REF_FRAME      = TEME
TIME_SYSTEM    = UTC
MEAN_ELEMENT_THEORY = SGP/SGP4

EPOCH          = 2025-11-18T04:00:03.000096
MEAN_MOTION    = 15.61116762
ECCENTRICITY   = .0000881
INCLINATION    = 53.1602
RA_OF_ASC_NODE = 85.8908
ARG_OF_PERICENTER = 79.3599
MEAN_ANOMALY   = 359.2373

EPHEMERIS_TYPE = 0
CLASSIFICATION_TYPE = U
NORAD_CAT_ID   = 66234
ELEMENT_SET_NO = 999
REV_AT_EPOCH   = 415
BSTAR          = -.26081E-1
MEAN_MOTION_DOT = -.1972175E-1
MEAN_MOTION_DDOT = 0

